<?xml version="1.0" encoding="UTF-8"?>
<kml xmlns="http://www.opengis.net/kml/2.2">
  <Document>
    <name>OCM Verified EV Charging Stations</name>
    <description>Verified charging stations promoted to data/static/stations.geojson.</description>
    <Style id="verified-real">
      <IconStyle><color>ff00a000</color><scale>1.1</scale><Icon><href>http://maps.google.com/mapfiles/kml/paddle/grn-circle.png</href></Icon></IconStyle>
    </Style>
    <Style id="verified-synthetic">
      <IconStyle><color>ff00a5ff</color><scale>1.1</scale><Icon><href>http://maps.google.com/mapfiles/kml/paddle/orange-circle.png</href></Icon></IconStyle>
    </Style>
    <Placemark>
      <name>EV ONE – Audi Hồ Chí Minh</name>
      <styleUrl>#verified-synthetic</styleUrl>
      <description><![CDATA[<b>Station ID:</b> ST_EVO_AUDI_HCM<br/><b>Address:</b> 6B Tôn Đức Thắng, Phường Sài Gòn, TP.HCM<br/><b>Operator:</b> EV ONE<br/><b>Access:</b> private<br/><b>Opening hours:</b> not published<br/><b>Total ports:</b> 4<br/><b>Connectors:</b> CCS2 DC 180 kW × 2 (synthetic); Type2 AC 11 kW × 2 (synthetic)<br/><b>Data class:</b> synthetic port inventory<br/><b>Source:</b> ev_one_official+osm_nominatim+manual_verification<br/><b>Notes:</b> Trạm nội bộ dành cho xe Audi; không dùng làm candidate mặc định.]]></description>
      <ExtendedData>
        <Data name="station_id"><value>ST_EVO_AUDI_HCM</value></Data>
        <Data name="operator"><value>EV ONE</value></Data>
        <Data name="total_ports"><value>4</value></Data>
        <Data name="connectors"><value>CCS2 DC 180 kW × 2 (synthetic); Type2 AC 11 kW × 2 (synthetic)</value></Data>
        <Data name="data_class"><value>synthetic port inventory</value></Data>
        <Data name="review_status"><value>verified</value></Data>
      </ExtendedData>
      <Point>
        <coordinates>106.7035683,10.7850877,0</coordinates>
      </Point>
    </Placemark>
    <Placemark>
      <name>EV ONE – Deutsches Haus Ho Chi Minh City</name>
      <styleUrl>#verified-synthetic</styleUrl>
      <description><![CDATA[<b>Station ID:</b> ST_EVO_DEUTSCHES_HAUS<br/><b>Address:</b> Tầng B3, 33 Lê Duẩn, Phường Sài Gòn, TP.HCM<br/><b>Operator:</b> EV ONE<br/><b>Access:</b> public<br/><b>Opening hours:</b> not published<br/><b>Total ports:</b> 4<br/><b>Connectors:</b> Type2 AC 22 kW × 4 (synthetic)<br/><b>Data class:</b> synthetic port inventory<br/><b>Source:</b> ev_one_official+osm_nominatim]]></description>
      <ExtendedData>
        <Data name="station_id"><value>ST_EVO_DEUTSCHES_HAUS</value></Data>
        <Data name="operator"><value>EV ONE</value></Data>
        <Data name="total_ports"><value>4</value></Data>
        <Data name="connectors"><value>Type2 AC 22 kW × 4 (synthetic)</value></Data>
        <Data name="data_class"><value>synthetic port inventory</value></Data>
        <Data name="review_status"><value>verified</value></Data>
      </ExtendedData>
      <Point>
        <coordinates>106.7006195,10.7818088,0</coordinates>
      </Point>
    </Placemark>
    <Placemark>
      <name>EV ONE – Lavida Quận 7</name>
      <styleUrl>#verified-synthetic</styleUrl>
      <description><![CDATA[<b>Station ID:</b> ST_EVO_LAVIDA_Q7<br/><b>Address:</b> Khu dân cư Lavida, Phường Tân Hưng, TP.HCM<br/><b>Operator:</b> EV ONE<br/><b>Access:</b> public<br/><b>Opening hours:</b> not published<br/><b>Total ports:</b> 1<br/><b>Connectors:</b> CCS2 DC 160 kW × 1 (synthetic)<br/><b>Data class:</b> synthetic port inventory<br/><b>Source:</b> ev_one_official+osm_nominatim]]></description>
      <ExtendedData>
        <Data name="station_id"><value>ST_EVO_LAVIDA_Q7</value></Data>
        <Data name="operator"><value>EV ONE</value></Data>
        <Data name="total_ports"><value>1</value></Data>
        <Data name="connectors"><value>CCS2 DC 160 kW × 1 (synthetic)</value></Data>
        <Data name="data_class"><value>synthetic port inventory</value></Data>
        <Data name="review_status"><value>verified</value></Data>
      </ExtendedData>
      <Point>
        <coordinates>106.7016553,10.7271154,0</coordinates>
      </Point>
    </Placemark>
    <Placemark>
      <name>EV ONE – Trần Khánh Dư</name>
      <styleUrl>#verified-synthetic</styleUrl>
      <description><![CDATA[<b>Station ID:</b> ST_EVO_TRAN_KHANH_DU<br/><b>Address:</b> 75 Trần Khánh Dư, Phường Tân Định, TP.HCM<br/><b>Operator:</b> EV ONE<br/><b>Access:</b> public<br/><b>Opening hours:</b> not published<br/><b>Total ports:</b> 1<br/><b>Connectors:</b> CCS2 DC 60 kW × 1 (synthetic)<br/><b>Data class:</b> synthetic port inventory<br/><b>Source:</b> goong_places+google_maps+synthetic_enrichment<br/><b>Notes:</b> EVCS did not expose an exact matching port inventory; one 60 kW CCS2 port is a project assumption.]]></description>
      <ExtendedData>
        <Data name="station_id"><value>ST_EVO_TRAN_KHANH_DU</value></Data>
        <Data name="operator"><value>EV ONE</value></Data>
        <Data name="total_ports"><value>1</value></Data>
        <Data name="connectors"><value>CCS2 DC 60 kW × 1 (synthetic)</value></Data>
        <Data name="data_class"><value>synthetic port inventory</value></Data>
        <Data name="review_status"><value>verified</value></Data>
      </ExtendedData>
      <Point>
        <coordinates>106.6874054,10.7936968,0</coordinates>
      </Point>
    </Placemark>
    <Placemark>
      <name>VinFast – Vinhomes Landmark 81 (hầm)</name>
      <styleUrl>#verified-real</styleUrl>
      <description><![CDATA[<b>Station ID:</b> ST_VF_LANDMARK_81<br/><b>Address:</b> 208 Trần Trọng Kim, Phường 22, Bình Thạnh, TP.HCM<br/><b>Operator:</b> VinFast<br/><b>Access:</b> public<br/><b>Opening hours:</b> 24/7<br/><b>Total ports:</b> 8<br/><b>Connectors:</b> CCS2 DC 60 kW × 2 (real); CCS2 DC 30 kW × 2 (real); Type2 AC 11 kW × 4 (real)<br/><b>Data class:</b> published port inventory<br/><b>Source:</b> goong_places+google_maps+evcs<br/><b>Notes:</b> Port inventory follows EVCS station HCM0031.]]></description>
      <ExtendedData>
        <Data name="station_id"><value>ST_VF_LANDMARK_81</value></Data>
        <Data name="operator"><value>VinFast</value></Data>
        <Data name="total_ports"><value>8</value></Data>
        <Data name="connectors"><value>CCS2 DC 60 kW × 2 (real); CCS2 DC 30 kW × 2 (real); Type2 AC 11 kW × 4 (real)</value></Data>
        <Data name="data_class"><value>published port inventory</value></Data>
        <Data name="review_status"><value>verified</value></Data>
      </ExtendedData>
      <Point>
        <coordinates>106.722328,10.794891,0</coordinates>
      </Point>
    </Placemark>
    <Placemark>
      <name>EV ONE – Nguyễn Cư Trinh</name>
      <styleUrl>#verified-synthetic</styleUrl>
      <description><![CDATA[<b>Station ID:</b> ST_EVO_NGUYEN_CU_TRINH<br/><b>Address:</b> 18 Nguyễn Cư Trinh, Quận 1, TP.HCM<br/><b>Operator:</b> EV ONE<br/><b>Access:</b> public<br/><b>Opening hours:</b> not published<br/><b>Total ports:</b> 1<br/><b>Connectors:</b> CCS2 DC 60 kW × 1 (synthetic)<br/><b>Data class:</b> synthetic port inventory<br/><b>Source:</b> goong_places+google_maps+synthetic_enrichment<br/><b>Notes:</b> EVCS did not expose an exact matching port inventory; one 60 kW CCS2 port is a project assumption.]]></description>
      <ExtendedData>
        <Data name="station_id"><value>ST_EVO_NGUYEN_CU_TRINH</value></Data>
        <Data name="operator"><value>EV ONE</value></Data>
        <Data name="total_ports"><value>1</value></Data>
        <Data name="connectors"><value>CCS2 DC 60 kW × 1 (synthetic)</value></Data>
        <Data name="data_class"><value>synthetic port inventory</value></Data>
        <Data name="review_status"><value>verified</value></Data>
      </ExtendedData>
      <Point>
        <coordinates>106.6921292,10.7648308,0</coordinates>
      </Point>
    </Placemark>
    <Placemark>
      <name>VinFast – Bãi đỗ xe công cộng Huyền Trân Công Chúa</name>
      <styleUrl>#verified-real</styleUrl>
      <description><![CDATA[<b>Station ID:</b> ST_VF_HUYEN_TRAN_CONG_CHUA<br/><b>Address:</b> 6 Huyền Trân Công Chúa, Phường Bến Thành, TP.HCM<br/><b>Operator:</b> VinFast<br/><b>Access:</b> public<br/><b>Opening hours:</b> 24/7<br/><b>Total ports:</b> 4<br/><b>Connectors:</b> CCS2 DC 120 kW × 4 (real)<br/><b>Data class:</b> published port inventory<br/><b>Source:</b> goong_places+google_maps+evcs<br/><b>Notes:</b> Port inventory follows EVCS station HCM0653.]]></description>
      <ExtendedData>
        <Data name="station_id"><value>ST_VF_HUYEN_TRAN_CONG_CHUA</value></Data>
        <Data name="operator"><value>VinFast</value></Data>
        <Data name="total_ports"><value>4</value></Data>
        <Data name="connectors"><value>CCS2 DC 120 kW × 4 (real)</value></Data>
        <Data name="data_class"><value>published port inventory</value></Data>
        <Data name="review_status"><value>verified</value></Data>
      </ExtendedData>
      <Point>
        <coordinates>106.693804,10.7766951,0</coordinates>
      </Point>
    </Placemark>
    <Placemark>
      <name>VinFast – FGW Đường số 81</name>
      <styleUrl>#verified-real</styleUrl>
      <description><![CDATA[<b>Station ID:</b> ST_VF_FGW_Q7<br/><b>Address:</b> 3-5 Đường số 81, Phường Tân Hưng, TP.HCM<br/><b>Operator:</b> VinFast<br/><b>Access:</b> public<br/><b>Opening hours:</b> 24/7<br/><b>Total ports:</b> 32<br/><b>Connectors:</b> CCS2 DC 120 kW × 12 (real); CCS2 DC 60 kW × 8 (real); Type2 AC 7 kW × 12 (real)<br/><b>Data class:</b> published port inventory<br/><b>Source:</b> goong_places+google_maps+evcs<br/><b>Notes:</b> Port inventory follows EVCS station HCM1345.]]></description>
      <ExtendedData>
        <Data name="station_id"><value>ST_VF_FGW_Q7</value></Data>
        <Data name="operator"><value>VinFast</value></Data>
        <Data name="total_ports"><value>32</value></Data>
        <Data name="connectors"><value>CCS2 DC 120 kW × 12 (real); CCS2 DC 60 kW × 8 (real); Type2 AC 7 kW × 12 (real)</value></Data>
        <Data name="data_class"><value>published port inventory</value></Data>
        <Data name="review_status"><value>verified</value></Data>
      </ExtendedData>
      <Point>
        <coordinates>106.7078448,10.7399577,0</coordinates>
      </Point>
    </Placemark>
    <Placemark>
      <name>VinFast – Ngô Quyền</name>
      <styleUrl>#verified-synthetic</styleUrl>
      <description><![CDATA[<b>Station ID:</b> ST_VF_NGO_QUYEN<br/><b>Address:</b> 147 Ngô Quyền, Phường Chợ Lớn, TP.HCM<br/><b>Operator:</b> VinFast<br/><b>Access:</b> public<br/><b>Opening hours:</b> not published<br/><b>Total ports:</b> 1<br/><b>Connectors:</b> CCS2 DC 60 kW × 1 (synthetic)<br/><b>Data class:</b> synthetic port inventory<br/><b>Source:</b> goong_places+google_maps+synthetic_enrichment<br/><b>Notes:</b> EVCS did not expose an exact matching port inventory; one 60 kW CCS2 port is a project assumption.]]></description>
      <ExtendedData>
        <Data name="station_id"><value>ST_VF_NGO_QUYEN</value></Data>
        <Data name="operator"><value>VinFast</value></Data>
        <Data name="total_ports"><value>1</value></Data>
        <Data name="connectors"><value>CCS2 DC 60 kW × 1 (synthetic)</value></Data>
        <Data name="data_class"><value>synthetic port inventory</value></Data>
        <Data name="review_status"><value>verified</value></Data>
      </ExtendedData>
      <Point>
        <coordinates>106.6654643,10.7590498,0</coordinates>
      </Point>
    </Placemark>
    <Placemark>
      <name>VinFast – Vincom Center Đồng Khởi (B5-B6)</name>
      <styleUrl>#verified-real</styleUrl>
      <description><![CDATA[<b>Station ID:</b> ST_VF_VINCOM_DONG_KHOI<br/><b>Address:</b> Hầm B5-B6, Vincom Center Đồng Khởi, 72 Lê Thánh Tôn, TP.HCM<br/><b>Operator:</b> VinFast<br/><b>Access:</b> public<br/><b>Opening hours:</b> 24/7<br/><b>Total ports:</b> 73<br/><b>Connectors:</b> CCS2 DC 80 kW × 2 (real); CCS2 DC 60 kW × 38 (real); CCS2 DC 30 kW × 11 (real); CCS2 DC 20 kW × 16 (real); Type2 AC 3.5 kW × 6 (real)<br/><b>Data class:</b> published port inventory<br/><b>Source:</b> goong_places+google_maps+evcs<br/><b>Notes:</b> Combined EVCS inventories for B6 (HCM0160) and B5 (HCM0030).]]></description>
      <ExtendedData>
        <Data name="station_id"><value>ST_VF_VINCOM_DONG_KHOI</value></Data>
        <Data name="operator"><value>VinFast</value></Data>
        <Data name="total_ports"><value>73</value></Data>
        <Data name="connectors"><value>CCS2 DC 80 kW × 2 (real); CCS2 DC 60 kW × 38 (real); CCS2 DC 30 kW × 11 (real); CCS2 DC 20 kW × 16 (real); Type2 AC 3.5 kW × 6 (real)</value></Data>
        <Data name="data_class"><value>published port inventory</value></Data>
        <Data name="review_status"><value>verified</value></Data>
      </ExtendedData>
      <Point>
        <coordinates>106.7020535,10.7779375,0</coordinates>
      </Point>
    </Placemark>
    <Placemark>
      <name>VinFast – Bãi đỗ xe tư nhân Quốc lộ 13</name>
      <styleUrl>#verified-real</styleUrl>
      <description><![CDATA[<b>Station ID:</b> ST_VF_QL13_BINH_THANH<br/><b>Address:</b> 55 Quốc lộ 13, Phường 26, Bình Thạnh, TP.HCM<br/><b>Operator:</b> VinFast<br/><b>Access:</b> public<br/><b>Opening hours:</b> 24/7<br/><b>Total ports:</b> 30<br/><b>Connectors:</b> CCS2 DC 120 kW × 4 (real); CCS2 DC 60 kW × 26 (real)<br/><b>Data class:</b> published port inventory<br/><b>Source:</b> goong_places+google_maps+evcs<br/><b>Notes:</b> Port inventory follows EVCS station HCM0618.]]></description>
      <ExtendedData>
        <Data name="station_id"><value>ST_VF_QL13_BINH_THANH</value></Data>
        <Data name="operator"><value>VinFast</value></Data>
        <Data name="total_ports"><value>30</value></Data>
        <Data name="connectors"><value>CCS2 DC 120 kW × 4 (real); CCS2 DC 60 kW × 26 (real)</value></Data>
        <Data name="data_class"><value>published port inventory</value></Data>
        <Data name="review_status"><value>verified</value></Data>
      </ExtendedData>
      <Point>
        <coordinates>106.712302,10.812013,0</coordinates>
      </Point>
    </Placemark>
    <Placemark>
      <name>VinFast – Vincom Plaza Cộng Hòa</name>
      <styleUrl>#verified-real</styleUrl>
      <description><![CDATA[<b>Station ID:</b> ST_VF_VINCOM_CONG_HOA<br/><b>Address:</b> 15-17 Cộng Hòa, Phường 4, Tân Bình, TP.HCM<br/><b>Operator:</b> VinFast<br/><b>Access:</b> public<br/><b>Opening hours:</b> 24/7<br/><b>Total ports:</b> 29<br/><b>Connectors:</b> CCS2 DC 250 kW × 1 (real); CCS2 DC 60 kW × 28 (real)<br/><b>Data class:</b> published port inventory<br/><b>Source:</b> goong_places+google_maps+evcs<br/><b>Notes:</b> Port inventory follows EVCS station HCM0038.]]></description>
      <ExtendedData>
        <Data name="station_id"><value>ST_VF_VINCOM_CONG_HOA</value></Data>
        <Data name="operator"><value>VinFast</value></Data>
        <Data name="total_ports"><value>29</value></Data>
        <Data name="connectors"><value>CCS2 DC 250 kW × 1 (real); CCS2 DC 60 kW × 28 (real)</value></Data>
        <Data name="data_class"><value>published port inventory</value></Data>
        <Data name="review_status"><value>verified</value></Data>
      </ExtendedData>
      <Point>
        <coordinates>106.6592203,10.8006382,0</coordinates>
      </Point>
    </Placemark>
    <Placemark>
      <name>VinFast – Phạm Hữu Lầu</name>
      <styleUrl>#verified-synthetic</styleUrl>
      <description><![CDATA[<b>Station ID:</b> ST_VF_PHAM_HUU_LAU<br/><b>Address:</b> 427 Phạm Hữu Lầu, Nhà Bè, TP.HCM<br/><b>Operator:</b> VinFast<br/><b>Access:</b> public<br/><b>Opening hours:</b> not published<br/><b>Total ports:</b> 19<br/><b>Connectors:</b> CCS2 DC 150 kW × 2 (synthetic); CCS2 DC 120 kW × 16 (synthetic); CCS2 DC 30 kW × 1 (synthetic)<br/><b>Data class:</b> synthetic port inventory<br/><b>Source:</b> goong_places+google_maps+synthetic_enrichment<br/><b>Notes:</b> Port counts were retained from the reviewed candidate; EVCS did not expose an exact station inventory at this address.]]></description>
      <ExtendedData>
        <Data name="station_id"><value>ST_VF_PHAM_HUU_LAU</value></Data>
        <Data name="operator"><value>VinFast</value></Data>
        <Data name="total_ports"><value>19</value></Data>
        <Data name="connectors"><value>CCS2 DC 150 kW × 2 (synthetic); CCS2 DC 120 kW × 16 (synthetic); CCS2 DC 30 kW × 1 (synthetic)</value></Data>
        <Data name="data_class"><value>synthetic port inventory</value></Data>
        <Data name="review_status"><value>verified</value></Data>
      </ExtendedData>
      <Point>
        <coordinates>106.7198716,10.701131,0</coordinates>
      </Point>
    </Placemark>
    <Placemark>
      <name>VinFast – La Vela Saigon Hotel</name>
      <styleUrl>#verified-real</styleUrl>
      <description><![CDATA[<b>Station ID:</b> ST_VF_LA_VELA<br/><b>Address:</b> 103 Lý Chính Thắng / 280 Nam Kỳ Khởi Nghĩa, TP.HCM<br/><b>Operator:</b> VinFast<br/><b>Access:</b> public<br/><b>Opening hours:</b> 24/7<br/><b>Total ports:</b> 2<br/><b>Connectors:</b> CCS2 DC 150 kW × 2 (real)<br/><b>Data class:</b> published port inventory<br/><b>Source:</b> goong_places+google_maps+evcs<br/><b>Notes:</b> Port inventory follows EVCS station HCM0462; the two street addresses refer to the same hotel property.]]></description>
      <ExtendedData>
        <Data name="station_id"><value>ST_VF_LA_VELA</value></Data>
        <Data name="operator"><value>VinFast</value></Data>
        <Data name="total_ports"><value>2</value></Data>
        <Data name="connectors"><value>CCS2 DC 150 kW × 2 (real)</value></Data>
        <Data name="data_class"><value>published port inventory</value></Data>
        <Data name="review_status"><value>verified</value></Data>
      </ExtendedData>
      <Point>
        <coordinates>106.6854854,10.788882,0</coordinates>
      </Point>
    </Placemark>
    <Placemark>
      <name>VinFast – Bùi Hữu Nghĩa</name>
      <styleUrl>#verified-synthetic</styleUrl>
      <description><![CDATA[<b>Station ID:</b> ST_VF_BUI_HUU_NGHIA<br/><b>Address:</b> 323 Bùi Hữu Nghĩa, Phường Gia Định, TP.HCM<br/><b>Operator:</b> VinFast<br/><b>Access:</b> public<br/><b>Opening hours:</b> not published<br/><b>Total ports:</b> 1<br/><b>Connectors:</b> CCS2 DC 60 kW × 1 (synthetic)<br/><b>Data class:</b> synthetic port inventory<br/><b>Source:</b> goong_places+google_maps+synthetic_enrichment<br/><b>Notes:</b> EVCS did not expose an exact matching port inventory; one 60 kW CCS2 port is a project assumption.]]></description>
      <ExtendedData>
        <Data name="station_id"><value>ST_VF_BUI_HUU_NGHIA</value></Data>
        <Data name="operator"><value>VinFast</value></Data>
        <Data name="total_ports"><value>1</value></Data>
        <Data name="connectors"><value>CCS2 DC 60 kW × 1 (synthetic)</value></Data>
        <Data name="data_class"><value>synthetic port inventory</value></Data>
        <Data name="review_status"><value>verified</value></Data>
      </ExtendedData>
      <Point>
        <coordinates>106.6993053,10.8001021,0</coordinates>
      </Point>
    </Placemark>
    <Placemark>
      <name>VinFast – Tạ Quang Bửu</name>
      <styleUrl>#verified-synthetic</styleUrl>
      <description><![CDATA[<b>Station ID:</b> ST_VF_TA_QUANG_BUU<br/><b>Address:</b> 23/20 Tạ Quang Bửu, Phường 4, Quận 8, TP.HCM<br/><b>Operator:</b> VinFast<br/><b>Access:</b> public<br/><b>Opening hours:</b> not published<br/><b>Total ports:</b> 1<br/><b>Connectors:</b> CCS2 DC 60 kW × 1 (synthetic)<br/><b>Data class:</b> synthetic port inventory<br/><b>Source:</b> goong_places+google_maps+synthetic_enrichment<br/><b>Notes:</b> EVCS did not expose an exact matching port inventory for this address; one 60 kW CCS2 port is a project assumption.]]></description>
      <ExtendedData>
        <Data name="station_id"><value>ST_VF_TA_QUANG_BUU</value></Data>
        <Data name="operator"><value>VinFast</value></Data>
        <Data name="total_ports"><value>1</value></Data>
        <Data name="connectors"><value>CCS2 DC 60 kW × 1 (synthetic)</value></Data>
        <Data name="data_class"><value>synthetic port inventory</value></Data>
        <Data name="review_status"><value>verified</value></Data>
      </ExtendedData>
      <Point>
        <coordinates>106.674506,10.739156,0</coordinates>
      </Point>
    </Placemark>
  </Document>
</kml>
